[{"OBJECT_NAME":"STARLINK-31248","OBJECT_ID":"2024-017Q","EPOCH":"2026-03-09T17:16:54.591456","MEAN_MOTION":15.30189376,"ECCENTRICITY":0.000143,"INCLINATION":53.1607,"RA_OF_ASC_NODE":216.74,"ARG_OF_PERICENTER":90.1158,"MEAN_ANOMALY":270.0006,"EPHEMERIS_TYPE":0,"CLASSIFICATION_TYPE":"U","NORAD_CAT_ID":58840,"ELEMENT_SET_NO":999,"REV_AT_EPOCH":11999,"BSTAR":-8.049993e-6,"MEAN_MOTION_DOT":-5.98e-6,"MEAN_MOTION_DDOT":0},{"OBJECT_NAME":"USA 25","OBJECT_ID":"1987-043H","EPOCH":"2026-03-09T22:37:27.916608","MEAN_MOTION":13.88545808,"ECCENTRICITY":0.07905574,"INCLINATION":63.2894,"RA_OF_ASC_NODE":272.1916,"ARG_OF_PERICENTER":101.4908,"MEAN_ANOMALY":267.5915,"EPHEMERIS_TYPE":0,"CLASSIFICATION_TYPE":"U","NORAD_CAT_ID":18025,"ELEMENT_SET_NO":999,"REV_AT_EPOCH":33808,"BSTAR":0.0008943639,"MEAN_MOTION_DOT":0.00017183,"MEAN_MOTION_DDOT":0}]
